CSS (TIANHE)            
1 48274U 21035A   24143.15761899  .00053136  00000+0  52379-3 0  9992
2 48274  41.4681 242.0167 0002596  33.1202 326.9801 15.65077438175026
